NORAD_CAT_ID,OBJECT_NAME,OBJECT_TYPE,EPOCH,MEAN_MOTION,ECCENTRICITY,INCLINATION,RA_OF_ASC_NODE,ARG_OF_PERICENTER,MEAN_ANOMALY,BSTAR,MEAN_MOTION_DOT,MEAN_MOTION_DDOT,TLE_LINE0,TLE_LINE1,TLE_LINE2,SEMIMAJOR_AXIS,PERIOD,APOGEE,PERIGEE,DECAYED
53775.0,STARLINK-4722,PAYLOAD,2024-02-12 08:46:44,15.08846984,0.0001833,53.2173,69.6271,106.7663,253.353,0.00021158,3.081e-05,0.0,0 STARLINK-4722,1 53775U 22111C   24043.36579429  .00003081  00000-0  21158-3 0  9994,2 53775  53.2173  69.6271 0001833 106.7663 253.3530 15.08846984 78701,6917.859,95.437,540.992,538.456,0.0
53775.0,STARLINK-4722,PAYLOAD,2024-02-13 08:37:32,15.08837536,0.0001952,53.2178,65.1683,117.5709,242.5482,2.5309e-05,1.15e-06,0.0,0 STARLINK-4722,1 53775U 22111C   24044.35939941  .00000115  00000-0  25309-4 0  9991,2 53775  53.2178  65.1683 0001952 117.5709 242.5482 15.08837536 78852,6917.888,95.438,541.103,538.403,0.0
53775.0,STARLINK-4722,PAYLOAD,2024-02-13 18:09:50,15.08840629,0.0001515,53.2172,63.3815,95.6704,264.4461,9.7188e-05,1.259e-05,0.0,0 STARLINK-4722,1 53775U 22111C   24044.75684002  .00001259  00000-0  97188-4 0  9994,2 53775  53.2172  63.3815 0001515  95.6704 264.4461 15.08840629 79723,6917.878,95.438,540.792,538.695,0.0
53775.0,STARLINK-4722,PAYLOAD,2024-02-14 10:03:42,15.08844726,0.0001663,53.217,60.4042,86.2329,273.8853,0.00012659,1.727e-05,0.0,0 STARLINK-4722,1 53775U 22111C   24045.41923835  .00001727  00000-0  12659-3 0  9997,2 53775  53.2170  60.4042 0001663  86.2329 273.8853 15.08844726 79017,6917.866,95.437,540.881,538.581,0.0
53775.0,STARLINK-4722,PAYLOAD,2024-02-14 18:00:38,15.08840639,0.0001751,53.2176,58.9182,91.3818,268.7374,8.0997e-05,1.001e-05,0.0,0 STARLINK-4722,1 53775U 22111C   24045.75044149  .00001001  00000-0  80997-4 0  9992,2 53775  53.2176  58.9182 0001751  91.3818 268.7374 15.08840639 79872,6917.878,95.438,540.955,538.532,0.0
53775.0,STARLINK-4722,PAYLOAD,2024-02-15 00:22:10,15.0883885,0.000148,53.2166,57.7304,94.5405,265.5757,0.00010711,1.417e-05,0.0,0 STARLINK-4722,1 53775U 22111C   24046.01540431  .00001417  00000-0  10711-3 0  9994,2 53775  53.2166  57.7304 0001480  94.5405 265.5757 15.08838850 79108,6917.884,95.438,540.773,538.725,0.0
53775.0,STARLINK-4722,PAYLOAD,2024-02-15 08:19:06,15.08838788,0.0001473,53.2173,56.2438,91.5226,268.5935,7.0755e-05,8.38e-06,0.0,0 STARLINK-4722,1 53775U 22111C   24046.34660444  .00000838  00000-0  70755-4 0  9998,2 53775  53.2173  56.2438 0001473  91.5226 268.5935 15.08838788 79963,6917.884,95.438,540.768,538.73,0.0
53775.0,STARLINK-4722,PAYLOAD,2024-02-16 06:34:30,15.08843256,0.0001441,53.2168,52.0809,96.6542,263.4614,2.9937e-05,1.89e-06,0.0,0 STARLINK-4722,1 53775U 22111C   24047.27396679  .00000189  00000-0  29937-4 0  9992,2 53775  53.2168  52.0809 0001441  96.6542 263.4614 15.08843256 79295,6917.87,95.437,540.732,538.739,0.0
53775.0,STARLINK-4722,PAYLOAD,2024-02-17 03:14:33,15.08823636,0.0001546,53.2186,48.2156,96.9583,263.1585,9.571e-07,-2.73e-06,0.0,0 STARLINK-4722,1 53775U 22111C   24048.13510613 -.00000273  00000-0  95710-6 0  9993,2 53775  53.2186  48.2156 0001546  96.9583 263.1585 15.08823636 79420,6917.93,95.439,540.865,538.726,0.0
53775.0,STARLINK-4722,PAYLOAD,2024-02-17 06:25:18,15.08840205,0.0001475,53.2183,47.6201,94.8831,265.2329,0.0001422,1.976e-05,0.0,0 STARLINK-4722,1 53775U 22111C   24048.26757521  .00001976  00000-0  14220-3 0  9992,2 53775  53.2183  47.6201 0001475  94.8831 265.2329 15.08840205 79447,6917.88,95.438,540.765,538.724,0.0
53775.0,STARLINK-4722,PAYLOAD,2024-02-18 06:16:04,15.08863512,0.0001615,53.2176,43.1578,97.0063,263.1113,0.0004467,6.833e-05,0.0,0 STARLINK-4722,1 53775U 22111C   24049.26116529  .00006833  00000-0  44670-3 0  9999,2 53775  53.2176  43.1578 0001615  97.0063 263.1113 15.08863512 79595,6917.809,95.436,540.791,538.556,0.0
53775.0,STARLINK-4722,PAYLOAD,2024-02-19 02:56:05,15.08853469,0.0001387,53.218,39.2918,100.0882,260.0267,5.0523e-05,5.16e-06,0.0,0 STARLINK-4722,1 53775U 22111C   24050.12228384  .00000516  00000-0  50523-4 0  9996,2 53775  53.2180  39.2918 0001387 100.0882 260.0267 15.08853469 79725,6917.839,95.437,540.664,538.745,0.0
53775.0,STARLINK-4722,PAYLOAD,2024-02-19 04:31:28,15.08853121,0.0001522,53.2175,38.9941,97.1451,262.9714,4.958e-05,5.01e-06,0.0,0 STARLINK-4722,1 53775U 22111C   24050.18852388  .00000501  00000-0  49580-4 0  9994,2 53775  53.2175  38.9941 0001522  97.1451 262.9714 15.08853121 80545,6917.84,95.437,540.758,538.652,0.0
53775.0,STARLINK-4722,PAYLOAD,2024-02-19 15:39:10,15.0884368,0.0001334,53.2169,36.9135,90.2816,269.8329,-0.00012846,-2.332e-05,0.0,0 STARLINK-4722,1 53775U 22111C   24050.65220482 -.00002332  00000-0 -12846-3 0  9990,2 53775  53.2169  36.9135 0001334  90.2816 269.8329 15.08843680 79805,6917.869,95.437,540.657,538.811,0.0
53775.0,STARLINK-4722,PAYLOAD,2024-02-20 04:22:15,15.08841665,0.0001758,53.2188,34.5393,115.7343,244.383,-0.00018954,-3.304e-05,0.0,0 STARLINK-4722,1 53775U 22111C   24051.18212557 -.00003304  00000-0 -18954-3 0  9999,2 53775  53.2188  34.5393 0001758 115.7343 244.3830 15.08841665 80699,6917.875,95.437,540.956,538.524,0.0
53775.0,STARLINK-4722,PAYLOAD,2024-02-20 15:29:57,15.08841744,0.0001723,53.2192,32.4575,93.8704,266.2485,-0.00011401,-2.102e-05,0.0,0 STARLINK-4722,1 53775U 22111C   24051.64580703 -.00002102  00000-0 -11401-3 0  9996,2 53775  53.2192  32.4575 0001723  93.8704 266.2485 15.08841744 80767,6917.875,95.437,540.932,538.548,0.0
53775.0,STARLINK-4722,PAYLOAD,2024-02-21 04:13:03,15.08840894,0.000161,53.2192,30.0776,101.6045,258.5128,9.4048e-05,1.209e-05,0.0,0 STARLINK-4722,1 53775U 22111C   24052.17572929  .00001209  00000-0  94048-4 0  9990,2 53775  53.2192  30.0776 0001610 101.6045 258.5128 15.08840894 80038,6917.878,95.437,540.856,538.629,0.0
53775.0,STARLINK-4722,PAYLOAD,2024-02-21 05:48:26,15.08843749,0.000181,53.219,29.7811,104.6809,255.4384,9.1329e-05,1.166e-05,0.0,0 STARLINK-4722,1 53775U 22111C   24052.24196798  .00001166  00000-0  91329-4 0  9995,2 53775  53.2190  29.7811 0001810 104.6809 255.4384 15.08843749 80856,6917.869,95.437,540.986,538.482,0.0
53775.0,STARLINK-4722,PAYLOAD,2024-02-21 15:20:45,15.08838312,0.0001422,53.2182,27.9943,92.9269,267.1886,0.00012687,1.732e-05,0.0,0 STARLINK-4722,1 53775U 22111C   24052.63941118  .00001732  00000-0  12687-3 0  9990,2 53775  53.2182  27.9943 0001422  92.9269 267.1886 15.08838312 80915,6917.886,95.438,540.734,538.767,0.0
53775.0,STARLINK-4722,PAYLOAD,2024-02-22 04:03:50,15.08837467,0.0001665,53.2195,25.6145,92.8966,267.2217,8.08e-05,9.98e-06,0.0,0 STARLINK-4722,1 53775U 22111C   24053.16933400  .00000998  00000-0  80800-4 0  9990,2 53775  53.2195  25.6145 0001665  92.8966 267.2217 15.08837467 80188,6917.888,95.438,540.905,538.601,0.0
53775.0,STARLINK-4722,PAYLOAD,2024-02-22 07:14:36,15.08840476,0.000162,53.2187,25.0182,90.8265,269.2913,0.00010872,1.443e-05,0.0,0 STARLINK-4722,1 53775U 22111C   24053.30181241  .00001443  00000-0  10872-3 0  9991,2 53775  53.2187  25.0182 0001620  90.8265 269.2913 15.08840476 81017,6917.879,95.438,540.865,538.623,0.0
53775.0,STARLINK-4722,PAYLOAD,2024-02-22 15:11:32,15.0883913,0.0001684,53.2185,23.5314,85.6396,274.4789,6.6521e-05,7.71e-06,0.0,0 STARLINK-4722,1 53775U 22111C   24053.63301398  .00000771  00000-0  66521-4 0  9990,2 53775  53.2185  23.5314 0001684  85.6396 274.4789 15.08839130 81061,6917.883,95.438,540.913,538.583,0.0
53775.0,STARLINK-4722,PAYLOAD,2024-02-23 07:05:23,15.0884993,0.0001626,53.2191,20.557,93.6041,266.5137,0.00010903,1.448e-05,0.0,0 STARLINK-4722,1 53775U 22111C   24054.29540854  .00001448  00000-0  10903-3 0  9999,2 53775  53.2191  20.5570 0001626  93.6041 266.5137 15.08849930 80350,6917.85,95.437,540.84,538.59,0.0
53775.0,STARLINK-4722,PAYLOAD,2024-02-23 15:02:19,15.08845712,0.0001492,53.2188,19.0727,94.2709,265.8453,0.00011672,1.57e-05,0.0,0 STARLINK-4722,1 53775U 22111C   24054.62661084  .00001570  00000-0  11672-3 0  9995,2 53775  53.2188  19.0727 0001492  94.2709 265.8453 15.08845712 81215,6917.863,95.437,540.76,538.696,0.0
53775.0,STARLINK-4722,PAYLOAD,2024-02-24 03:45:24,15.08843581,0.0001723,53.2186,16.6934,92.4057,267.7132,8.6632e-05,1.091e-05,0.0,0 STARLINK-4722,1 53775U 22111C   24055.15653336  .00001091  00000-0  86632-4 0  9992,2 53775  53.2186  16.6934 0001723  92.4057 267.7132 15.08843581 80484,6917.869,95.437,540.926,538.542,0.0
53775.0,STARLINK-4722,PAYLOAD,2024-02-24 06:56:10,15.08848593,0.0001818,53.2199,16.0968,96.6122,263.5077,0.00012721,1.737e-05,0.0,0 STARLINK-4722,1 53775U 22111C   24055.28900961  .00001737  00000-0  12721-3 0  9999,2 53775  53.2199  16.0968 0001818  96.6122 263.5077 15.08848593 81316,6917.854,95.437,540.977,538.461,0.0
53775.0,STARLINK-4722,PAYLOAD,2024-02-24 14:53:06,15.08838197,0.0001851,53.2194,14.6095,97.9171,262.2031,5.69e-05,6.18e-06,0.0,0 STARLINK-4722,1 53775U 22111C   24055.62021847  .00000618  00000-0  56900-4 0  9999,2 53775  53.2194  14.6095 0001851  97.9171 262.2031 15.08838197 80551,6917.886,95.438,541.031,538.47,0.0
53775.0,STARLINK-4722,PAYLOAD,2024-02-25 06:46:57,15.0884765,0.0001634,53.2196,11.635,95.368,264.7499,9.2157e-05,1.179e-05,0.0,0 STARLINK-4722,1 53775U 22111C   24056.28261092  .00001179  00000-0  92157-4 0  9997,2 53775  53.2196  11.6350 0001634  95.3680 264.7499 15.08847650 80650,6917.857,95.437,540.852,538.592,0.0
53775.0,STARLINK-4722,PAYLOAD,2024-02-26 06:37:44,15.08855342,0.0001555,53.219,7.1743,95.3813,264.7357,0.00023481,3.453e-05,0.0,0 STARLINK-4722,1 53775U 22111C   24057.27620541  .00003453  00000-0  23481-3 0  9995,2 53775  53.2190   7.1743 0001555  95.3813 264.7357 15.08855342 81617,6917.833,95.437,540.774,538.623,0.0
53775.0,STARLINK-4722,PAYLOAD,2024-02-27 03:17:45,15.08839308,0.0001616,53.2188,3.3084,101.6909,258.4265,5.9753e-05,6.63e-06,0.0,0 STARLINK-4722,1 53775U 22111C   24058.13733482  .00000663  00000-0  59753-4 0  9992,2 53775  53.2188   3.3084 0001616 101.6909 258.4265 15.08839308 80931,6917.883,95.438,540.865,538.63,0.0
